TRANSPORTER-16 OBJECT M 
1 68427U 26067M   26107.82409423  .00006627  00000+0  32607-3 0  9997
2 68427  97.4509  67.2039 0002421 133.7783 226.3652 15.18328004  2786
OUT OF THE BOX (OOTB)   
1 68428U 26067N   26107.82660974  .00002999  00000+0  15065-3 0  9995
2 68428  97.4529  67.2056 0001899 142.8468 217.2898 15.18042703  2787
TRANSPORTER-16 OBJECT P 
1 68429U 26067P   26107.82747236  .00008689  00000+0  42938-3 0  9994
2 68429  97.4477  67.1898 0001380 184.3779 175.7444 15.18088191  2780
TRANSPORTER-16 OBJECT Q 
1 68430U 26067Q   26107.82489930  .00005243  00000+0  25934-3 0  9990
2 68430  97.4463  67.1926 0002014 105.2668 254.8789 15.18240827  2780
DISCO-2                 
1 68431U 26067R   26107.82576245  .00006236  00000+0  30838-3 0  9999
2 68431  97.4563  67.2138 0002358 151.7972 208.3390 15.18175708  2780
TRANSPORTER-16 OBJECT S 
1 68432U 26067S   26108.55350165  .00005024  00000+0  25088-3 0  9997
2 68432  97.4519  67.9155 0001498 175.1481 184.9767 15.17929911  2898
T.MICROSAT-22           
1 68433U 26067T   26107.84153914  .00003610  00000+0  18705-3 0  9999
2 68433  97.4533  67.1864 0003846 273.6537  86.4256 15.16816835  2785
TRANSPORTER-16 OBJECT U 
1 68434U 26067U   26107.82503937  .00002976  00000+0  14895-3 0  9992
2 68434  97.4540  67.2095 0002430 133.3221 226.8216 15.18171410  2782
ION SCV ASTOUNDING ALEX*
1 68435U 26067V   26107.89742043  .00002187  00000+0  11208-3 0  9992
2 68435  97.4507  67.2601 0000833 229.8069 130.3092 15.17621937  2790
TRANSPORTER-16 OBJECT W 
1 68436U 26067W   26107.89848865  .00003066  00000+0  15606-3 0  9995
2 68436  97.4503  67.2585 0000807 222.0650 138.0522 15.17563596  2799
TRANSPORTER-16 OBJECT X 
1 68437U 26067X   26107.63102621  .00008459  00000+0  41900-3 0  9998
2 68437  97.4470  66.9919 0000754 191.4753 168.6464 15.18014399  2757
TRANSPORTER-16 OBJECT Y 
1 68438U 26067Y   26107.82889430  .00013410  00000+0  66102-3 0  9994
2 68438  97.4485  67.1916 0000994 216.4967 143.6199 15.18058991  2782
TRANSPORTER-16 OBJECT Z 
1 68439U 26067Z   26107.83098561  .00010491  00000+0  52122-3 0  9996
2 68439  97.4482  67.1878 0000337 280.6444  79.4752 15.17846770  2781
TRANSPORTER-16 OBJECT AA
1 68440U 26067AA  26107.43482810  .00012146  00000+0  60112-3 0  9995
2 68440  97.4478  66.7989 0000353 279.0473  81.0721 15.17943236  2722
TRANSPORTER-16 OBJECT AB
1 68441U 26067AB  26107.83331669  .00002476  00000+0  12598-3 0  9995
2 68441  97.4450  67.1823 0001058 316.3037  43.8113 15.17752058  2786
TRANSPORTER-16 OBJECT AC
1 68442U 26067AC  26107.83793082  .00003962  00000+0  20318-3 0  9997
2 68442  97.4500  67.1837 0002493 286.6897  73.4062 15.17125968  2781
